UNKNOWN                 
1 82402U          26049.23417918  .00005425  00000+0  38420-3 0  9997
2 82402  86.6641 126.4370 0005866 270.4423  89.6140 15.04616716464615
UNKNOWN                 
1 82432U          26044.89251108  .00001674  00000+0  35650-3 0  9998
2 82432  74.0052 220.1076 0055410   7.7988 352.4024 14.58853164492113
UNKNOWN                 
1 82448U          26049.27465747  .00006122  00000+0  43115-3 0  9996
2 82448  85.8799 163.2325 0008488  30.3692 329.8032 15.04825090447193
UNKNOWN                 
1 82453U          26048.33146162 -.00000003  00000+0  31467-3 0  9995
2 82453 102.1889   9.6778 0093782  84.0854 277.0888 12.39708267554311
UNKNOWN                 
1 82458U          26027.80523470  .00004849  00000+0  21370-2 0  9992
2 82458  66.5137  63.4517 0057759 335.2450  24.5873 14.23291843616591
UNKNOWN                 
1 82484U          26048.01033410  .00000138  00000+0  25542-3 0  9990
2 82484  99.3521  71.2171 0044829  27.1377 333.2092 13.55823687599610
UNKNOWN                 
1 82494U          26046.56981969  .00019283  00000+0  20517-2 0  9997
2 82494  74.0055 252.3990 0004002  20.5249 339.6092 14.88910384 94605
UNKNOWN                 
1 82500U          26034.85359289  .00003871  00000+0  17524-2 0  9998
2 82500  70.9644 251.4033 0117114  33.9891 326.8664 14.19001250626487
UNKNOWN                 
1 82524U          26047.98607663  .00004708  00000+0  14759-2 0  9991
2 82524  73.2798  54.6153 0133195 181.7532 207.1065 14.35927022586546
UNKNOWN                 
1 82529U          26044.72913250  .00000375  00000+0  63537-3 0  9992
2 82529  99.7827 131.1254 0239189  87.4256  64.2362 13.41177053598187
UNKNOWN                 
1 82560U          26048.81985629  .00001141  00000+0  95184-3 0  9995
2 82560  99.9946   1.3611 0010336 121.3562 268.1292 13.90858062621195
UNKNOWN                 
1 82597U          26045.44311891  .00001844  00000+0  62709-3 0  9992
2 82597  66.7734 340.2118 0099312 263.2487  95.7306 14.36062374638127
