CCSDS_OMM_VERS = 2.0
CREATION_DATE  = 
ORIGINATOR     = 

OBJECT_NAME    = UNKNOWN
OBJECT_ID      = 
CENTER_NAME    = EARTH
REF_FRAME      = TEME
TIME_SYSTEM    = UTC
MEAN_ELEMENT_THEORY = SGP/SGP4

EPOCH          = 2026-02-18T05:37:13.081152
MEAN_MOTION    = 15.04616716
ECCENTRICITY   = .0005866
INCLINATION    = 86.6641
RA_OF_ASC_NODE = 126.4370
ARG_OF_PERICENTER = 270.4423
MEAN_ANOMALY   = 89.6140

EPHEMERIS_TYPE = 0
CLASSIFICATION_TYPE = U
NORAD_CAT_ID   = 82402
ELEMENT_SET_NO = 999
REV_AT_EPOCH   = 46461
BSTAR          = .3842E-3
MEAN_MOTION_DOT = .5425E-4
MEAN_MOTION_DDOT = 0

CCSDS_OMM_VERS = 2.0
CREATION_DATE  = 
ORIGINATOR     = 

OBJECT_NAME    = UNKNOWN
OBJECT_ID      = 
CENTER_NAME    = EARTH
REF_FRAME      = TEME
TIME_SYSTEM    = UTC
MEAN_ELEMENT_THEORY = SGP/SGP4

EPOCH          = 2026-02-13T21:25:12.957312
MEAN_MOTION    = 14.58853164
ECCENTRICITY   = .005541
INCLINATION    = 74.0052
RA_OF_ASC_NODE = 220.1076
ARG_OF_PERICENTER = 7.7988
MEAN_ANOMALY   = 352.4024

EPHEMERIS_TYPE = 0
CLASSIFICATION_TYPE = U
NORAD_CAT_ID   = 82432
ELEMENT_SET_NO = 999
REV_AT_EPOCH   = 49211
BSTAR          = .3565E-3
MEAN_MOTION_DOT = .1674E-4
MEAN_MOTION_DDOT = 0

CCSDS_OMM_VERS = 2.0
CREATION_DATE  = 
ORIGINATOR     = 

OBJECT_NAME    = UNKNOWN
OBJECT_ID      = 
CENTER_NAME    = EARTH
REF_FRAME      = TEME
TIME_SYSTEM    = UTC
MEAN_ELEMENT_THEORY = SGP/SGP4

EPOCH          = 2026-02-18T06:35:30.405408
MEAN_MOTION    = 15.04825090
ECCENTRICITY   = .0008488
INCLINATION    = 85.8799
RA_OF_ASC_NODE = 163.2325
ARG_OF_PERICENTER = 30.3692
MEAN_ANOMALY   = 329.8032

EPHEMERIS_TYPE = 0
CLASSIFICATION_TYPE = U
NORAD_CAT_ID   = 82448
ELEMENT_SET_NO = 999
REV_AT_EPOCH   = 44719
BSTAR          = .43115E-3
MEAN_MOTION_DOT = .6122E-4
MEAN_MOTION_DDOT = 0

CCSDS_OMM_VERS = 2.0
CREATION_DATE  = 
ORIGINATOR     = 

OBJECT_NAME    = UNKNOWN
OBJECT_ID      = 
CENTER_NAME    = EARTH
REF_FRAME      = TEME
TIME_SYSTEM    = UTC
MEAN_ELEMENT_THEORY = SGP/SGP4

EPOCH          = 2026-02-17T07:57:18.283968
MEAN_MOTION    = 12.39708267
ECCENTRICITY   = .0093782
INCLINATION    = 102.1889
RA_OF_ASC_NODE = 9.6778
ARG_OF_PERICENTER = 84.0854
MEAN_ANOMALY   = 277.0888

EPHEMERIS_TYPE = 0
CLASSIFICATION_TYPE = U
NORAD_CAT_ID   = 82453
ELEMENT_SET_NO = 999
REV_AT_EPOCH   = 55431
BSTAR          = .31467E-3
MEAN_MOTION_DOT = -.3E-7
MEAN_MOTION_DDOT = 0

CCSDS_OMM_VERS = 2.0
CREATION_DATE  = 
ORIGINATOR     = 

OBJECT_NAME    = UNKNOWN
OBJECT_ID      = 
CENTER_NAME    = EARTH
REF_FRAME      = TEME
TIME_SYSTEM    = UTC
MEAN_ELEMENT_THEORY = SGP/SGP4

EPOCH          = 2026-01-27T19:19:32.278080
MEAN_MOTION    = 14.23291843
ECCENTRICITY   = .0057759
INCLINATION    = 66.5137
RA_OF_ASC_NODE = 63.4517
ARG_OF_PERICENTER = 335.2450
MEAN_ANOMALY   = 24.5873

EPHEMERIS_TYPE = 0
CLASSIFICATION_TYPE = U
NORAD_CAT_ID   = 82458
ELEMENT_SET_NO = 999
REV_AT_EPOCH   = 61659
BSTAR          = .2137E-2
MEAN_MOTION_DOT = .4849E-4
MEAN_MOTION_DDOT = 0

CCSDS_OMM_VERS = 2.0
CREATION_DATE  = 
ORIGINATOR     = 

OBJECT_NAME    = UNKNOWN
OBJECT_ID      = 
CENTER_NAME    = EARTH
REF_FRAME      = TEME
TIME_SYSTEM    = UTC
MEAN_ELEMENT_THEORY = SGP/SGP4

EPOCH          = 2026-02-17T00:14:52.866240
MEAN_MOTION    = 13.55823687
ECCENTRICITY   = .0044829
INCLINATION    = 99.3521
RA_OF_ASC_NODE = 71.2171
ARG_OF_PERICENTER = 27.1377
MEAN_ANOMALY   = 333.2092

EPHEMERIS_TYPE = 0
CLASSIFICATION_TYPE = U
NORAD_CAT_ID   = 82484
ELEMENT_SET_NO = 999
REV_AT_EPOCH   = 59961
BSTAR          = .25542E-3
MEAN_MOTION_DOT = .138E-5
MEAN_MOTION_DDOT = 0

CCSDS_OMM_VERS = 2.0
CREATION_DATE  = 
ORIGINATOR     = 

OBJECT_NAME    = UNKNOWN
OBJECT_ID      = 
CENTER_NAME    = EARTH
REF_FRAME      = TEME
TIME_SYSTEM    = UTC
MEAN_ELEMENT_THEORY = SGP/SGP4

EPOCH          = 2026-02-15T13:40:32.421216
MEAN_MOTION    = 14.88910384
ECCENTRICITY   = .0004002
INCLINATION    = 74.0055
RA_OF_ASC_NODE = 252.3990
ARG_OF_PERICENTER = 20.5249
MEAN_ANOMALY   = 339.6092

EPHEMERIS_TYPE = 0
CLASSIFICATION_TYPE = U
NORAD_CAT_ID   = 82494
ELEMENT_SET_NO = 999
REV_AT_EPOCH   = 9460
BSTAR          = .20517E-2
MEAN_MOTION_DOT = .19283E-3
MEAN_MOTION_DDOT = 0

CCSDS_OMM_VERS = 2.0
CREATION_DATE  = 
ORIGINATOR     = 

OBJECT_NAME    = UNKNOWN
OBJECT_ID      = 
CENTER_NAME    = EARTH
REF_FRAME      = TEME
TIME_SYSTEM    = UTC
MEAN_ELEMENT_THEORY = SGP/SGP4

EPOCH          = 2026-02-03T20:29:10.425696
MEAN_MOTION    = 14.19001250
ECCENTRICITY   = .0117114
INCLINATION    = 70.9644
RA_OF_ASC_NODE = 251.4033
ARG_OF_PERICENTER = 33.9891
MEAN_ANOMALY   = 326.8664

EPHEMERIS_TYPE = 0
CLASSIFICATION_TYPE = U
NORAD_CAT_ID   = 82500
ELEMENT_SET_NO = 999
REV_AT_EPOCH   = 62648
BSTAR          = .17524E-2
MEAN_MOTION_DOT = .3871E-4
MEAN_MOTION_DDOT = 0

CCSDS_OMM_VERS = 2.0
CREATION_DATE  = 
ORIGINATOR     = 

OBJECT_NAME    = UNKNOWN
OBJECT_ID      = 
CENTER_NAME    = EARTH
REF_FRAME      = TEME
TIME_SYSTEM    = UTC
MEAN_ELEMENT_THEORY = SGP/SGP4

EPOCH          = 2026-02-16T23:39:57.020832
MEAN_MOTION    = 14.35927022
ECCENTRICITY   = .0133195
INCLINATION    = 73.2798
RA_OF_ASC_NODE = 54.6153
ARG_OF_PERICENTER = 181.7532
MEAN_ANOMALY   = 207.1065

EPHEMERIS_TYPE = 0
CLASSIFICATION_TYPE = U
NORAD_CAT_ID   = 82524
ELEMENT_SET_NO = 999
REV_AT_EPOCH   = 58654
BSTAR          = .14759E-2
MEAN_MOTION_DOT = .4708E-4
MEAN_MOTION_DDOT = 0

CCSDS_OMM_VERS = 2.0
CREATION_DATE  = 
ORIGINATOR     = 

OBJECT_NAME    = UNKNOWN
OBJECT_ID      = 
CENTER_NAME    = EARTH
REF_FRAME      = TEME
TIME_SYSTEM    = UTC
MEAN_ELEMENT_THEORY = SGP/SGP4

EPOCH          = 2026-02-13T17:29:57.048000
MEAN_MOTION    = 13.41177053
ECCENTRICITY   = .0239189
INCLINATION    = 99.7827
RA_OF_ASC_NODE = 131.1254
ARG_OF_PERICENTER = 87.4256
MEAN_ANOMALY   = 64.2362

EPHEMERIS_TYPE = 0
CLASSIFICATION_TYPE = U
NORAD_CAT_ID   = 82529
ELEMENT_SET_NO = 999
REV_AT_EPOCH   = 59818
BSTAR          = .63537E-3
MEAN_MOTION_DOT = .375E-5
MEAN_MOTION_DDOT = 0

CCSDS_OMM_VERS = 2.0
CREATION_DATE  = 
ORIGINATOR     = 

OBJECT_NAME    = UNKNOWN
OBJECT_ID      = 
CENTER_NAME    = EARTH
REF_FRAME      = TEME
TIME_SYSTEM    = UTC
MEAN_ELEMENT_THEORY = SGP/SGP4

EPOCH          = 2026-02-17T19:40:35.583456
MEAN_MOTION    = 13.90858062
ECCENTRICITY   = .0010336
INCLINATION    = 99.9946
RA_OF_ASC_NODE = 1.3611
ARG_OF_PERICENTER = 121.3562
MEAN_ANOMALY   = 268.1292

EPHEMERIS_TYPE = 0
CLASSIFICATION_TYPE = U
NORAD_CAT_ID   = 82560
ELEMENT_SET_NO = 999
REV_AT_EPOCH   = 62119
BSTAR          = .95184E-3
MEAN_MOTION_DOT = .1141E-4
MEAN_MOTION_DDOT = 0

CCSDS_OMM_VERS = 2.0
CREATION_DATE  = 
ORIGINATOR     = 

OBJECT_NAME    = UNKNOWN
OBJECT_ID      = 
CENTER_NAME    = EARTH
REF_FRAME      = TEME
TIME_SYSTEM    = UTC
MEAN_ELEMENT_THEORY = SGP/SGP4

EPOCH          = 2026-02-14T10:38:05.473824
MEAN_MOTION    = 14.36062374
ECCENTRICITY   = .0099312
INCLINATION    = 66.7734
RA_OF_ASC_NODE = 340.2118
ARG_OF_PERICENTER = 263.2487
MEAN_ANOMALY   = 95.7306

EPHEMERIS_TYPE = 0
CLASSIFICATION_TYPE = U
NORAD_CAT_ID   = 82597
ELEMENT_SET_NO = 999
REV_AT_EPOCH   = 63812
BSTAR          = .62709E-3
MEAN_MOTION_DOT = .1844E-4
MEAN_MOTION_DDOT = 0

